STARLINK-30707
1 57949U 23148Q   25355.39714495 -.00000097  00000+0  88568-5 0  9990
2 57949  53.1607  28.0658 0001074  81.1903 278.9219 15.30195680126433